NORAD_CAT_ID,OBJECT_NAME,OBJECT_TYPE,EPOCH,MEAN_MOTION,ECCENTRICITY,INCLINATION,RA_OF_ASC_NODE,ARG_OF_PERICENTER,MEAN_ANOMALY,BSTAR,MEAN_MOTION_DOT,MEAN_MOTION_DDOT,TLE_LINE0,TLE_LINE1,TLE_LINE2,SEMIMAJOR_AXIS,PERIOD,APOGEE,PERIGEE,DECAYED
51789.0,STARLINK-3639,PAYLOAD,2023-09-27 13:14:46,15.08835795,0.0001528,53.2185,43.0618,75.1508,284.9653,3.6076e-05,2.86e-06,0.0,0 STARLINK-3639,1 51789U 22017X   23270.55192349  .00000286  00000-0  36076-4 0  9996,2 51789  53.2185  43.0618 0001528  75.1508 284.9653 15.08835795 87294,6917.893,95.438,540.815,538.701,0.0
51789.0,STARLINK-3639,PAYLOAD,2023-09-28 13:05:33,15.08839532,0.0001295,53.2181,38.6002,79.8258,280.288,0.00020189,2.927e-05,0.0,0 STARLINK-3639,1 51789U 22017X   23271.54552384  .00002927  00000-0  20189-3 0  9996,2 51789  53.2181  38.6002 0001295  79.8258 280.2880 15.08839532 89095,6917.882,95.438,540.643,538.851,0.0
51789.0,STARLINK-3639,PAYLOAD,2023-09-28 14:40:56,15.08840017,0.0001561,53.218,38.3026,66.1968,293.9187,0.00020524,2.98e-05,0.0,0 STARLINK-3639,1 51789U 22017X   23271.61176476  .00002980  00000-0  20524-3 0  9990,2 51789  53.2180  38.3026 0001561  66.1968 293.9187 15.08840017 87459,6917.88,95.438,540.825,538.665,0.0
51789.0,STARLINK-3639,PAYLOAD,2023-09-28 17:51:42,15.08848285,0.0001524,53.218,37.7076,71.1745,288.9412,0.00031361,4.708e-05,0.0,0 STARLINK-3639,1 51789U 22017X   23271.74424047  .00004708  00000-0  31361-3 0  9995,2 51789  53.2180  37.7076 0001524  71.1745 288.9412 15.08848285 87477,6917.855,95.437,540.774,538.666,0.0
51789.0,STARLINK-3639,PAYLOAD,2023-09-29 14:31:44,15.08828714,0.0001342,53.2181,33.8435,70.8296,289.2841,-3.0726e-05,-7.77e-06,0.0,0 STARLINK-3639,1 51789U 22017X   23272.60537766 -.00000777  00000-0 -30726-4 0  9993,2 51789  53.2181  33.8435 0001342  70.8296 289.2841 15.08828714 87609,6917.915,95.438,540.708,538.852,0.0
51789.0,STARLINK-3639,PAYLOAD,2023-09-30 01:39:26,15.08840808,0.0001177,53.2181,31.7604,106.1256,253.9866,0.00020179,2.925e-05,0.0,0 STARLINK-3639,1 51789U 22017X   23273.06905273  .00002925  00000-0  20179-3 0  9991,2 51789  53.2181  31.7604 0001177 106.1256 253.9866 15.08840808 89323,6917.878,95.438,540.557,538.929,0.0
51789.0,STARLINK-3639,PAYLOAD,2023-09-30 14:22:31,15.08864243,0.0001317,53.2176,29.3838,81.5448,278.5693,0.001102,0.00017305,0.0,0 STARLINK-3639,1 51789U 22017X   23273.59897038  .00017305  00000-0  11020-2 0  9990,2 51789  53.2176  29.3838 0001317  81.5448 278.5693 15.08864243 89403,6917.806,95.436,540.582,538.76,0.0
51789.0,STARLINK-3639,PAYLOAD,2023-10-01 11:02:30,15.08872875,0.0001543,53.2186,25.5148,107.1052,253.0109,0.00060067,9.293e-05,0.0,0 STARLINK-3639,1 51789U 22017X   23274.46007665  .00009293  00000-0  60067-3 0  9999,2 51789  53.2186  25.5148 0001543 107.1052 253.0109 15.08872875 89537,6917.78,95.435,540.712,538.577,0.0
51789.0,STARLINK-3639,PAYLOAD,2023-10-01 14:13:16,15.08872282,0.0001412,53.2185,24.9207,94.0076,266.1078,0.00054221,8.359e-05,0.0,0 STARLINK-3639,1 51789U 22017X   23274.59255478  .00008359  00000-0  54221-3 0  9997,2 51789  53.2185  24.9207 0001412  94.0076 266.1078 15.08872282 87901,6917.782,95.436,540.624,538.67,0.0
51789.0,STARLINK-3639,PAYLOAD,2023-10-01 17:24:02,15.08875228,0.0001359,53.2187,24.3261,92.9201,267.1947,0.00056048,8.652e-05,0.0,0 STARLINK-3639,1 51789U 22017X   23274.72503171  .00008652  00000-0  56048-3 0  9993,2 51789  53.2187  24.3261 0001359  92.9201 267.1947 15.08875228 87925,6917.773,95.435,540.578,538.698,0.0
51789.0,STARLINK-3639,PAYLOAD,2023-10-02 12:28:41,15.08840635,0.00015,53.2192,20.7602,91.2543,268.8621,-0.00020926,-3.617e-05,0.0,0 STARLINK-3639,1 51789U 22017X   23275.51991955 -.00003617  00000-0 -20926-3 0  9996,2 51789  53.2192  20.7602 0001500  91.2543 268.8621 15.08840635 89696,6917.878,95.438,540.781,538.706,0.0
51789.0,STARLINK-3639,PAYLOAD,2023-10-02 14:04:04,15.08841634,0.0001465,53.2192,20.4654,80.2884,279.8274,-0.00015662,-2.78e-05,0.0,0 STARLINK-3639,1 51789U 22017X   23275.58615968 -.00002780  00000-0 -15662-3 0  9991,2 51789  53.2192  20.4654 0001465  80.2884 279.8274 15.08841634 88051,6917.875,95.437,540.754,538.727,0.0
51789.0,STARLINK-3639,PAYLOAD,2023-10-03 13:54:51,15.08846549,0.0001456,53.2187,16.0054,77.1677,282.9478,0.00016552,2.348e-05,0.0,0 STARLINK-3639,1 51789U 22017X   23276.57976048  .00002348  00000-0  16552-3 0  9997,2 51789  53.2187  16.0054 0001456  77.1677 282.9478 15.08846549 88203,6917.86,95.437,540.733,538.718,0.0
51789.0,STARLINK-3639,PAYLOAD,2023-10-04 10:34:52,15.08841386,0.0001536,53.2187,12.1407,80.6277,279.4888,0.0002103,3.061e-05,0.0,0 STARLINK-3639,1 51789U 22017X   23277.44088482  .00003061  00000-0  21030-3 0  9990,2 51789  53.2187  12.1407 0001536  80.6277 279.4888 15.08841386 89982,6917.876,95.437,540.804,538.679,0.0
51789.0,STARLINK-3639,PAYLOAD,2023-10-04 13:45:38,15.0885015,0.0001476,53.2184,11.5444,74.9855,285.13,0.00036326,5.5e-05,0.0,0 STARLINK-3639,1 51789U 22017X   23277.57336141  .00005500  00000-0  36326-3 0  9996,2 51789  53.2184  11.5444 0001476  74.9855 285.1300 15.08850150 88356,6917.849,95.437,540.735,538.693,0.0
51789.0,STARLINK-3639,PAYLOAD,2023-10-05 10:25:39,15.08839801,0.0001655,53.2174,7.6782,88.1817,271.9364,6.2259e-05,7.03e-06,0.0,0 STARLINK-3639,1 51789U 22017X   23278.43448590  .00000703  00000-0  62259-4 0  9999,2 51789  53.2174   7.6782 0001655  88.1817 271.9364 15.08839801 90132,6917.881,95.438,540.891,538.601,0.0
51789.0,STARLINK-3639,PAYLOAD,2023-10-05 13:36:25,15.08849142,0.0001318,53.2168,7.0814,87.9251,272.1892,0.00019944,2.888e-05,0.0,0 STARLINK-3639,1 51789U 22017X   23278.56695988  .00002888  00000-0  19944-3 0  9996,2 51789  53.2168   7.0814 0001318  87.9251 272.1892 15.08849142 88506,6917.852,95.437,540.629,538.806,0.0
51789.0,STARLINK-3639,PAYLOAD,2023-10-06 13:27:12,15.08847198,0.0001615,53.2173,2.6213,80.8495,279.268,0.00022966,3.37e-05,0.0,0 STARLINK-3639,1 51789U 22017X   23279.56056542  .00003370  00000-0  22966-3 0  9999,2 51789  53.2173   2.6213 0001615  80.8495 279.2680 15.08847198 90301,6917.858,95.437,540.841,538.606,0.0
51789.0,STARLINK-3639,PAYLOAD,2023-10-07 10:07:13,15.0884371,0.0001745,53.2169,358.7572,86.9798,273.1394,0.00028644,4.274e-05,0.0,0 STARLINK-3639,1 51789U 22017X   23280.42168933  .00004274  00000-0  28644-3 0  9997,2 51789  53.2169 358.7572 0001745  86.9798 273.1394 15.08843710 90431,6917.869,95.437,540.941,538.527,0.0
51789.0,STARLINK-3639,PAYLOAD,2023-10-07 11:42:36,15.0884853,0.000166,53.2167,358.4581,94.1817,265.9364,0.00038589,5.86e-05,0.0,0 STARLINK-3639,1 51789U 22017X   23280.48792637  .00005860  00000-0  38589-3 0  9998,2 51789  53.2167 358.4581 0001660  94.1817 265.9364 15.08848530 88792,6917.854,95.437,540.868,538.571,0.0
51789.0,STARLINK-3639,PAYLOAD,2023-10-08 09:58:01,15.08839294,0.0001935,53.2177,354.2959,86.8398,273.2815,9.8473e-05,1.279e-05,0.0,0 STARLINK-3639,1 51789U 22017X   23281.41529274  .00001279  00000-0  98473-4 0  9996,2 51789  53.2177 354.2959 0001935  86.8398 273.2815 15.08839294 90583,6917.883,95.438,541.086,538.409,0.0
51789.0,STARLINK-3639,PAYLOAD,2023-10-08 11:33:24,15.08841993,0.0001925,53.2179,353.9978,85.5928,274.5285,0.0001293,1.77e-05,0.0,0 STARLINK-3639,1 51789U 22017X   23281.48153112  .00001770  00000-0  12930-3 0  9996,2 51789  53.2179 353.9978 0001925  85.5928 274.5285 15.08841993 88947,6917.874,95.437,541.071,538.408,0.0
51789.0,STARLINK-3639,PAYLOAD,2023-10-09 11:24:11,15.0885288,0.0001854,53.2181,349.5394,81.3536,278.7666,0.00032993,4.968e-05,0.0,0 STARLINK-3639,1 51789U 22017X   23282.47512823  .00004968  00000-0  32993-3 0  9997,2 51789  53.2181 349.5394 0001854  81.3536 278.7666 15.08852880 89096,6917.841,95.437,540.989,538.423,0.0
51789.0,STARLINK-3639,PAYLOAD,2023-10-10 11:14:57,15.08852445,0.0001823,53.2184,345.0798,83.5656,276.5544,0.00029614,4.43e-05,0.0,0 STARLINK-3639,1 51789U 22017X   23283.46872659  .00004430  00000-0  29614-3 0  9993,2 51789  53.2184 345.0798 0001823  83.5656 276.5544 15.08852445 90899,6917.842,95.437,540.968,538.446,0.0
51789.0,STARLINK-3639,PAYLOAD,2023-10-11 04:44:12,15.08834789,0.0001809,53.2179,341.8061,81.0725,279.0471,-0.00011388,-2.1e-05,0.0,0 STARLINK-3639,1 51789U 22017X   23284.19737215 -.00002100  00000-0 -11388-3 0  9995,2 51789  53.2179 341.8061 0001809  81.0725 279.0471 15.08834789 91006,6917.896,95.438,541.013,538.51,0.0
51789.0,STARLINK-3639,PAYLOAD,2023-10-11 11:05:45,15.08832818,0.0001778,53.2178,340.6171,83.1691,276.9503,-0.00010961,-2.032e-05,0.0,0 STARLINK-3639,1 51789U 22017X   23284.46233568 -.00002032  00000-0 -10961-3 0  9997,2 51789  53.2178 340.6171 0001778  83.1691 276.9503 15.08832818 89396,6917.902,95.438,540.997,538.537,0.0
51789.0,STARLINK-3639,PAYLOAD,2023-10-12 10:56:32,15.0884906,0.0001839,53.2174,336.1567,84.4156,275.7046,0.00036334,5.501e-05,0.0,0 STARLINK-3639,1 51789U 22017X   23285.45593534  .00005501  00000-0  36334-3 0  9993,2 51789  53.2174 336.1567 0001839  84.4156 275.7046 15.08849060 89542,6917.853,95.437,540.99,538.446,0.0
51789.0,STARLINK-3639,PAYLOAD,2023-10-12 20:28:51,15.08841632,0.0002067,53.2171,334.3718,83.7059,276.4169,0.00035026,5.291e-05,0.0,0 STARLINK-3639,1 51789U 22017X   23285.85337842  .00005291  00000-0  35026-3 0  9998,2 51789  53.2171 334.3718 0002067  83.7059 276.4169 15.08841632 89603,6917.875,95.437,541.17,538.31,0.0
51789.0,STARLINK-3639,PAYLOAD,2023-10-13 02:50:24,15.08838084,0.000196,53.2168,333.1856,81.3006,278.8208,0.00026853,3.988e-05,0.0,0 STARLINK-3639,1 51789U 22017X   23286.11834119  .00003988  00000-0  26853-3 0  9996,2 51789  53.2168 333.1856 0001960  81.3006 278.8208 15.08838084 91291,6917.886,95.438,541.107,538.395,0.0
51789.0,STARLINK-3639,PAYLOAD,2023-10-13 10:47:20,15.0884435,0.0001969,53.2162,331.6984,80.2122,279.9093,0.00026414,3.919e-05,0.0,0 STARLINK-3639,1 51789U 22017X   23286.44953872  .00003919  00000-0  26414-3 0  9997,2 51789  53.2162 331.6984 0001969  80.2122 279.9093 15.08844350 89694,6917.867,95.437,541.094,538.37,0.0
